start=new Date('2022-07-29T00:00:00.000Z').valueOf();
sats=[{"RCS_SIZE":"LARGE","MEAN_ELEMENT_THEORY":"SGP4","TLE_LINE1":"1 46162U 20057AX  22209.82997879  .00001826  00000-0  14143-3 0  9990","CENTER_NAME":"EARTH","MEAN_ANOMALY":"280.5385","ARG_OF_PERICENTER":"79.5793","ECCENTRICITY":"0.00016750","COUNTRY_CODE":"US","TIME_SYSTEM":"UTC","DECAY_DATE":null,"INCLINATION":"53.0548","LAUNCH_DATE":"2020-08-18","OBJECT_TYPE":"PAYLOAD","SEMIMAJOR_AXIS":"6925.324","MEAN_MOTION_DOT":"0.00001826","REF_FRAME":"TEME","TLE_LINE2":"2 46162  53.0548 101.7122 0001675  79.5793 280.5385 15.06408149108670","FILE":"3524113","CLASSIFICATION_TYPE":"U","NORAD_CAT_ID":"46162","GP_ID":"209064339","ELEMENT_SET_NO":"999","RA_OF_ASC_NODE":"101.7122","MEAN_MOTION":"15.06408149","PERIAPSIS":"546.029","PERIOD":"95.592","EPHEMERIS_TYPE":"0","APOAPSIS":"548.349","OBJECT_ID":"2020-057AX","OBJECT_NAME":"STARLINK-1603","BSTAR":"0.00014143000000","EPOCH":"2022-07-28T19:55:10.167456","SITE":"AFETR","MEAN_MOTION_DDOT":"0.0000000000000","REV_AT_EPOCH":"10867"},{"DECAY_DATE":null,"TIME_SYSTEM":"UTC","ECCENTRICITY":"0.00014930","COUNTRY_CODE":"US","INCLINATION":"53.0550","SEMIMAJOR_AXIS":"6925.370","OBJECT_TYPE":"PAYLOAD","LAUNCH_DATE":"2020-08-18","MEAN_MOTION_DOT":"-0.00000202","TLE_LINE2":"2 46163  53.0550  81.9966 0001493  74.3394 285.7760 15.06393013107684","REF_FRAME":"TEME","CLASSIFICATION_TYPE":"U","FILE":"3524113","RCS_SIZE":"LARGE","TLE_LINE1":"1 46163U 20057AY  22209.76179864 -.00000202  00000-0  53072-5 0  9994","MEAN_ELEMENT_THEORY":"SGP4","CENTER_NAME":"EARTH","ARG_OF_PERICENTER":"74.3394","MEAN_ANOMALY":"285.7760","OBJECT_NAME":"STARLINK-1610","OBJECT_ID":"2020-057AY","APOAPSIS":"548.269","BSTAR":"0.00000530720000","EPOCH":"2022-07-28T18:16:59.402496","SITE":"AFETR","MEAN_MOTION_DDOT":"0.0000000000000","REV_AT_EPOCH":"10768","GP_ID":"209063090","NORAD_CAT_ID":"46163","ELEMENT_SET_NO":"999","RA_OF_ASC_NODE":"81.9966","MEAN_MOTION":"15.06393013","PERIAPSIS":"546.201","EPHEMERIS_TYPE":"0","PERIOD":"95.593"},{"FILE":"3524113","CLASSIFICATION_TYPE":"U","TLE_LINE2":"2 46164  53.0548  82.0127 0001487  84.0526 276.0632 15.06390673108941","REF_FRAME":"TEME","MEAN_MOTION_DOT":"0.00000871","SEMIMAJOR_AXIS":"6925.377","LAUNCH_DATE":"2020-08-18","OBJECT_TYPE":"PAYLOAD","INCLINATION":"53.0548","TIME_SYSTEM":"UTC","DECAY_DATE":null,"COUNTRY_CODE":"US","ECCENTRICITY":"0.00014870","ARG_OF_PERICENTER":"84.0526","MEAN_ANOMALY":"276.0632","CENTER_NAME":"EARTH","TLE_LINE1":"1 46164U 20057AZ  22209.75811215  .00000871  00000-0  77353-4 0  9995","MEAN_ELEMENT_THEORY":"SGP4","RCS_SIZE":"LARGE","REV_AT_EPOCH":"10894","MEAN_MOTION_DDOT":"0.0000000000000","SITE":"AFETR","EPOCH":"2022-07-28T18:11:40.889760","BSTAR":"0.00007735300000","OBJECT_NAME":"STARLINK-1612","OBJECT_ID":"2020-057AZ","APOAPSIS":"548.272","EPHEMERIS_TYPE":"0","PERIOD":"95.593","PERIAPSIS":"546.212","MEAN_MOTION":"15.06390673","RA_OF_ASC_NODE":"82.0127","ELEMENT_SET_NO":"999","NORAD_CAT_ID":"46164","GP_ID":"209063341"},{"BSTAR":"0.00093805000000","APOAPSIS":"525.455","OBJECT_NAME":"STARLINK-1613","OBJECT_ID":"2020-057BA","REV_AT_EPOCH":"10777","MEAN_MOTION_DDOT":"0.0000000000000","SITE":"AFETR","EPOCH":"2022-07-28T04:04:34.936320","ELEMENT_SET_NO":"999","GP_ID":"209003207","NORAD_CAT_ID":"46165","PERIOD":"95.102","EPHEMERIS_TYPE":"0","MEAN_MOTION":"15.14158414","PERIAPSIS":"521.618","RA_OF_ASC_NODE":"119.0503","INCLINATION":"53.0540","ECCENTRICITY":"0.00027800","COUNTRY_CODE":"US","TIME_SYSTEM":"UTC","DECAY_DATE":null,"CLASSIFICATION_TYPE":"U","FILE":"3523370","REF_FRAME":"TEME","TLE_LINE2":"2 46165  53.0540 119.0503 0002780  46.4625 313.6598 15.14158414107775","MEAN_MOTION_DOT":"0.00017045","LAUNCH_DATE":"2020-08-18","OBJECT_TYPE":"PAYLOAD","SEMIMAJOR_AXIS":"6901.672","TLE_LINE1":"1 46165U 20057BA  22209.16984880  .00017045  00000-0  93805-3 0  9990","MEAN_ELEMENT_THEORY":"SGP4","RCS_SIZE":"LARGE","MEAN_ANOMALY":"313.6598","ARG_OF_PERICENTER":"46.4625","CENTER_NAME":"EARTH"},{"TLE_LINE1":"1 46166U 20057BB  22209.61067653  .00000338  00000-0  41611-4 0  9997","MEAN_ELEMENT_THEORY":"SGP4","RCS_SIZE":"LARGE","MEAN_ANOMALY":"274.8580","ARG_OF_PERICENTER":"85.2577","CENTER_NAME":"EARTH","INCLINATION":"53.0552","COUNTRY_CODE":"US","ECCENTRICITY":"0.00014740","TIME_SYSTEM":"UTC","DECAY_DATE":null,"CLASSIFICATION_TYPE":"U","FILE":"3524113","REF_FRAME":"TEME","TLE_LINE2":"2 46166  53.0552 122.6861 0001474  85.2577 274.8580 15.06392874107109","MEAN_MOTION_DOT":"0.00000338","OBJECT_TYPE":"PAYLOAD","LAUNCH_DATE":"2020-08-18","SEMIMAJOR_AXIS":"6925.370","ELEMENT_SET_NO":"999","GP_ID":"209064839","NORAD_CAT_ID":"46166","PERIOD":"95.593","EPHEMERIS_TYPE":"0","PERIAPSIS":"546.215","MEAN_MOTION":"15.06392874","RA_OF_ASC_NODE":"122.6861","BSTAR":"0.00004161100000","APOAPSIS":"548.256","OBJECT_NAME":"STARLINK-1615","OBJECT_ID":"2020-057BB","REV_AT_EPOCH":"10710","MEAN_MOTION_DDOT":"0.0000000000000","SITE":"AFETR","EPOCH":"2022-07-28T14:39:22.452192"},{"MEAN_MOTION_DOT":"0.00001702","OBJECT_TYPE":"PAYLOAD","LAUNCH_DATE":"2020-08-18","SEMIMAJOR_AXIS":"6925.336","CLASSIFICATION_TYPE":"U","FILE":"3524113","REF_FRAME":"TEME","TLE_LINE2":"2 46167  53.0529 121.7224 0001847  73.1210 286.9981 15.06404218107139","INCLINATION":"53.0529","ECCENTRICITY":"0.00018470","COUNTRY_CODE":"US","DECAY_DATE":null,"TIME_SYSTEM":"UTC","MEAN_ANOMALY":"286.9981","ARG_OF_PERICENTER":"73.1210","CENTER_NAME":"EARTH","TLE_LINE1":"1 46167U 20057BC  22209.82446033  .00001702  00000-0  13312-3 0  9996","MEAN_ELEMENT_THEORY":"SGP4","RCS_SIZE":"LARGE","SITE":"AFETR","EPOCH":"2022-07-28T19:47:13.372512","REV_AT_EPOCH":"10713","MEAN_MOTION_DDOT":"0.0000000000000","APOAPSIS":"548.480","OBJECT_NAME":"STARLINK-1626","OBJECT_ID":"2020-057BC","BSTAR":"0.00013312000000","MEAN_MOTION":"15.06404218","PERIAPSIS":"545.922","RA_OF_ASC_NODE":"121.7224","PERIOD":"95.592","EPHEMERIS_TYPE":"0","GP_ID":"209063590","NORAD_CAT_ID":"46167","ELEMENT_SET_NO":"999"},{"CENTER_NAME":"EARTH","MEAN_ANOMALY":"281.8024","ARG_OF_PERICENTER":"78.3138","RCS_SIZE":"LARGE","TLE_LINE1":"1 46168U 20057BD  22209.73691790  .00000974  00000-0  84263-4 0  9993","MEAN_ELEMENT_THEORY":"SGP4","REF_FRAME":"TEME","TLE_LINE2":"2 46168  53.0551  72.2000 0001544  78.3138 281.8024 15.06403802107812","CLASSIFICATION_TYPE":"U","FILE":"3524113","LAUNCH_DATE":"2020-08-18","OBJECT_TYPE":"PAYLOAD","SEMIMAJOR_AXIS":"6925.337","MEAN_MOTION_DOT":"0.00000974","ECCENTRICITY":"0.00015440","COUNTRY_CODE":"US","DECAY_DATE":null,"TIME_SYSTEM":"UTC","INCLINATION":"53.0551","PERIOD":"95.592","EPHEMERIS_TYPE":"0","RA_OF_ASC_NODE":"72.2000","MEAN_MOTION":"15.06403802","PERIAPSIS":"546.133","ELEMENT_SET_NO":"999","GP_ID":"209063841","NORAD_CAT_ID":"46168","MEAN_MOTION_DDOT":"0.0000000000000","REV_AT_EPOCH":"10781","EPOCH":"2022-07-28T17:41:09.706560","SITE":"AFETR","BSTAR":"0.00008426300000","APOAPSIS":"548.271","OBJECT_ID":"2020-057BD","OBJECT_NAME":"STARLINK-1627"},{"MEAN_ANOMALY":"279.5515","ARG_OF_PERICENTER":"80.5659","CENTER_NAME":"EARTH","MEAN_ELEMENT_THEORY":"SGP4","TLE_LINE1":"1 46169U 20057BE  22209.79770727 -.00000505  00000-0 -15444-4 0  9995","RCS_SIZE":"LARGE","MEAN_MOTION_DOT":"-0.00000505","OBJECT_TYPE":"PAYLOAD","LAUNCH_DATE":"2020-08-18","SEMIMAJOR_AXIS":"6927.832","CLASSIFICATION_TYPE":"U","FILE":"3524113","REF_FRAME":"TEME","TLE_LINE2":"2 46169  53.0008 121.8320 0001650  80.5659 279.5515 15.05589907107085","INCLINATION":"53.0008","COUNTRY_CODE":"US","ECCENTRICITY":"0.00016500","DECAY_DATE":null,"TIME_SYSTEM":"UTC","PERIAPSIS":"548.554","MEAN_MOTION":"15.05589907","RA_OF_ASC_NODE":"121.8320","PERIOD":"95.644","EPHEMERIS_TYPE":"0","NORAD_CAT_ID":"46169","GP_ID":"209064092","ELEMENT_SET_NO":"999","SITE":"AFETR","EPOCH":"2022-07-28T19:08:41.908128","REV_AT_EPOCH":"10708","MEAN_MOTION_DDOT":"0.0000000000000","APOAPSIS":"550.841","OBJECT_NAME":"STARLINK-1628","OBJECT_ID":"2020-057BE","BSTAR":"-0.00001544400000"},{"BSTAR":"0.00013487000000","APOAPSIS":"548.321","OBJECT_ID":"2020-057BG","OBJECT_NAME":"STARLINK-1633","REV_AT_EPOCH":"10866","MEAN_MOTION_DDOT":"0.0000000000000","SITE":"AFETR","EPOCH":"2022-07-28T19:12:42.321312","ELEMENT_SET_NO":"999","NORAD_CAT_ID":"46171","GP_ID":"209064340","PERIOD":"95.591","EPHEMERIS_TYPE":"0","MEAN_MOTION":"15.06414331","PERIAPSIS":"546.018","RA_OF_ASC_NODE":"101.8274","INCLINATION":"53.0541","ECCENTRICITY":"0.00016630","COUNTRY_CODE":"US","DECAY_DATE":null,"TIME_SYSTEM":"UTC","FILE":"3524113","CLASSIFICATION_TYPE":"U","REF_FRAME":"TEME","TLE_LINE2":"2 46171  53.0541 101.8274 0001663  88.2593 271.8587 15.06414331108660","MEAN_MOTION_DOT":"0.00001729","OBJECT_TYPE":"PAYLOAD","LAUNCH_DATE":"2020-08-18","SEMIMAJOR_AXIS":"6925.305","MEAN_ELEMENT_THEORY":"SGP4","TLE_LINE1":"1 46171U 20057BG  22209.80048983  .00001729  00000-0  13487-3 0  9993","RCS_SIZE":"LARGE","MEAN_ANOMALY":"271.8587","ARG_OF_PERICENTER":"88.2593","CENTER_NAME":"EARTH"},{"INCLINATION":"53.0527","TIME_SYSTEM":"UTC","DECAY_DATE":null,"ECCENTRICITY":"0.00016330","COUNTRY_CODE":"US","MEAN_MOTION_DOT":"0.00000931","SEMIMAJOR_AXIS":"6925.338","OBJECT_TYPE":"PAYLOAD","LAUNCH_DATE":"2020-08-18","FILE":"3524113","CLASSIFICATION_TYPE":"U","TLE_LINE2":"2 46172  53.0527 101.7592 0001633  79.4837 280.6336 15.06403379108667","REF_FRAME":"TEME","TLE_LINE1":"1 46172U 20057BH  22209.81523749  .00000931  00000-0  81407-4 0  9995","MEAN_ELEMENT_THEORY":"SGP4","RCS_SIZE":"LARGE","ARG_OF_PERICENTER":"79.4837","MEAN_ANOMALY":"280.6336","CENTER_NAME":"EARTH","OBJECT_NAME":"STARLINK-1635","OBJECT_ID":"2020-057BH","APOAPSIS":"548.334","BSTAR":"0.00008140700000","SITE":"AFETR","EPOCH":"2022-07-28T19:33:56.519136","REV_AT_EPOCH":"10866","MEAN_MOTION_DDOT":"0.0000000000000","GP_ID":"209063091","NORAD_CAT_ID":"46172","ELEMENT_SET_NO":"999","MEAN_MOTION":"15.06403379","PERIAPSIS":"546.072","RA_OF_ASC_NODE":"101.7592","EPHEMERIS_TYPE":"0","PERIOD":"95.592"}];
